NORAD_CAT_ID,OBJECT_NAME,OBJECT_TYPE,EPOCH,MEAN_MOTION,ECCENTRICITY,INCLINATION,RA_OF_ASC_NODE,ARG_OF_PERICENTER,MEAN_ANOMALY,BSTAR,MEAN_MOTION_DOT,MEAN_MOTION_DDOT,TLE_LINE0,TLE_LINE1,TLE_LINE2,SEMIMAJOR_AXIS,PERIOD,APOGEE,PERIGEE,DECAYED
50207.0,STARLINK-3262,PAYLOAD,2023-05-08 13:02:24,15.08814456,0.0001055,53.2155,210.56,94.5553,265.5559,-0.00030347,-5.111e-05,0.0,0 STARLINK-3262,1 50207U 21125BD  23128.54334290 -.00005111  00000-0 -30347-3 0  9991,2 50207  53.2155 210.5600 0001055  94.5553 265.5559 15.08814456 78300,6917.958,95.439,540.553,539.094,0.0
50207.0,STARLINK-3262,PAYLOAD,2023-05-09 12:53:11,15.08843101,0.0001113,53.2146,206.1042,75.5654,284.5461,0.00045917,7.028e-05,0.0,0 STARLINK-3262,1 50207U 21125BD  23129.53694072  .00007028  00000-0  45917-3 0  9994,2 50207  53.2146 206.1042 0001113  75.5654 284.5461 15.08843101 78455,6917.871,95.437,540.506,538.966,0.0
50207.0,STARLINK-3262,PAYLOAD,2023-05-10 09:33:11,15.08862811,0.0001179,53.2146,202.2371,75.9921,284.1202,0.00059752,9.24e-05,0.0,0 STARLINK-3262,1 50207U 21125BD  23130.39805544  .00009240  00000-0  59752-3 0  9998,2 50207  53.2146 202.2371 0001179  75.9921 284.1202 15.08862811 78582,6917.811,95.436,540.491,538.86,0.0
50207.0,STARLINK-3262,PAYLOAD,2023-05-10 15:54:43,15.08873226,0.0001153,53.2142,201.047,80.2687,279.8436,0.00079136,0.0001234,0.0,0 STARLINK-3262,1 50207U 21125BD  23130.66300908  .00012340  00000-0  79136-3 0  9995,2 50207  53.2142 201.0470 0001153  80.2687 279.8436 15.08873226 78622,6917.779,95.435,540.441,538.846,0.0
50207.0,STARLINK-3262,PAYLOAD,2023-05-11 10:59:21,15.08855861,0.0001224,53.2149,197.4782,81.6053,278.5078,0.000112,1.496e-05,0.0,0 STARLINK-3262,1 50207U 21125BD  23131.45788546  .00001496  00000-0  11200-3 0  9999,2 50207  53.2149 197.4782 0001224  81.6053 278.5078 15.08855861 78740,6917.832,95.437,540.544,538.85,0.0
50207.0,STARLINK-3262,PAYLOAD,2023-05-11 23:42:26,15.08848612,0.0001406,53.2146,195.1012,69.8327,290.2817,1.2585e-05,-8.8e-07,0.0,0 STARLINK-3262,1 50207U 21125BD  23131.98780653 -.00000088  00000-0  12585-4 0  9993,2 50207  53.2146 195.1012 0001406  69.8327 290.2817 15.08848612 78829,6917.854,95.437,540.692,538.746,0.0
50207.0,STARLINK-3262,PAYLOAD,2023-05-12 07:39:22,15.08834646,0.0001132,53.2146,193.6116,84.372,275.7401,-0.00018416,-3.217e-05,0.0,0 STARLINK-3262,1 50207U 21125BD  23132.31901030 -.00003217  00000-0 -18416-3 0  9991,2 50207  53.2146 193.6116 0001132  84.3720 275.7401 15.08834646 78876,6917.897,95.438,540.545,538.979,0.0
50207.0,STARLINK-3262,PAYLOAD,2023-05-12 09:14:45,15.08835468,0.0001098,53.2149,193.3141,87.3543,272.7575,-0.00014977,-2.67e-05,0.0,0 STARLINK-3262,1 50207U 21125BD  23132.38525182 -.00002670  00000-0 -14977-3 0  9998,2 50207  53.2149 193.3141 0001098  87.3543 272.7575 15.08835468 78884,6917.894,95.438,540.519,539.0,0.0
50207.0,STARLINK-3262,PAYLOAD,2023-05-13 10:40:55,15.0884595,0.0001343,53.2159,188.5582,113.0142,247.0992,7.1663e-05,8.53e-06,0.0,0 STARLINK-3262,1 50207U 21125BD  23133.44508569  .00000853  00000-0  71663-4 0  9991,2 50207  53.2159 188.5582 0001343 113.0142 247.0992 15.08845950 79049,6917.862,95.437,540.656,538.798,0.0
50207.0,STARLINK-3262,PAYLOAD,2023-05-13 20:13:14,15.08844145,0.0001181,53.2156,186.7673,85.3865,274.7262,-0.00011191,-2.069e-05,0.0,0 STARLINK-3262,1 50207U 21125BD  23133.84252584 -.00002069  00000-0 -11191-3 0  9990,2 50207  53.2156 186.7673 0001181  85.3865 274.7262 15.08844145 79109,6917.868,95.437,540.55,538.916,0.0
50207.0,STARLINK-3262,PAYLOAD,2023-05-14 07:20:57,15.08830334,0.0001581,53.2169,184.6942,118.4476,241.6676,8.0313e-05,9.9e-06,0.0,0 STARLINK-3262,1 50207U 21125BD  23134.30621662  .00000990  00000-0  80313-4 0  9991,2 50207  53.2169 184.6942 0001581 118.4476 241.6676 15.08830334 79173,6917.91,95.438,540.869,538.681,0.0
50207.0,STARLINK-3262,PAYLOAD,2023-05-14 08:56:20,15.08830414,0.0001525,53.2169,184.397,116.9724,243.1424,7.6148e-05,9.24e-06,0.0,0 STARLINK-3262,1 50207U 21125BD  23134.37245719  .00000924  00000-0  76148-4 0  9991,2 50207  53.2169 184.3970 0001525 116.9724 243.1424 15.08830414 79186,6917.91,95.438,540.83,538.72,0.0
50207.0,STARLINK-3262,PAYLOAD,2023-05-14 20:04:02,15.08833603,0.0001496,53.2165,182.3173,119.6348,240.4794,3.6427e-05,2.92e-06,0.0,0 STARLINK-3262,1 50207U 21125BD  23134.83613726  .00000292  00000-0  36427-4 0  9993,2 50207  53.2165 182.3173 0001496 119.6348 240.4794 15.08833603 79255,6917.9,95.438,540.8,538.73,0.0
50207.0,STARLINK-3262,PAYLOAD,2023-05-15 07:11:43,15.08842906,0.000131,53.2164,180.2351,110.5866,249.5267,-2.7111e-05,-7.19e-06,0.0,0 STARLINK-3262,1 50207U 21125BD  23135.29981409 -.00000719  00000-0 -27111-4 0  9996,2 50207  53.2164 180.2351 0001310 110.5866 249.5267 15.08842906 79328,6917.872,95.437,540.643,538.83,0.0
50207.0,STARLINK-3262,PAYLOAD,2023-05-15 11:57:54,15.08822302,0.0001451,53.216,179.3393,96.0706,264.0452,0.00062804,9.717e-05,0.0,0 STARLINK-3262,1 50207U 21125BD  23135.49854589  .00009717  00000-0  62804-3 0  9998,2 50207  53.2160 179.3393 0001451  96.0706 264.0452 15.08822302 79355,6917.934,95.439,540.803,538.796,0.0
50207.0,STARLINK-3262,PAYLOAD,2023-05-15 19:54:49,15.0883835,0.0001287,53.216,177.8539,94.3174,265.7965,0.00010443,1.374e-05,0.0,0 STARLINK-3262,1 50207U 21125BD  23135.82973778  .00001374  00000-0  10443-3 0  9990,2 50207  53.2160 177.8539 0001287  94.3174 265.7965 15.08838350 79400,6917.885,95.438,540.641,538.86,0.0
50207.0,STARLINK-3262,PAYLOAD,2023-05-16 10:13:17,15.08841909,0.0001199,53.2154,175.176,93.2668,266.8461,0.0001503,2.105e-05,0.0,0 STARLINK-3262,1 50207U 21125BD  23136.42589696  .00002105  00000-0  15030-3 0  9999,2 50207  53.2154 175.1760 0001199  93.2668 266.8461 15.08841909 79494,6917.875,95.437,540.569,538.91,0.0
50207.0,STARLINK-3262,PAYLOAD,2023-05-16 19:45:36,15.08842142,0.0001185,53.215,173.3902,91.2091,268.9037,0.0001216,1.648e-05,0.0,0 STARLINK-3262,1 50207U 21125BD  23136.82333650  .00001648  00000-0  12160-3 0  9992,2 50207  53.2150 173.3902 0001185  91.2091 268.9037 15.08842142 79550,6917.874,95.437,540.559,538.919,0.0
50207.0,STARLINK-3262,PAYLOAD,2023-05-17 10:04:04,15.08845402,0.0001172,53.215,170.7137,91.8849,268.2277,0.0001133,1.516e-05,0.0,0 STARLINK-3262,1 50207U 21125BD  23137.41949427  .00001516  00000-0  11330-3 0  9995,2 50207  53.2150 170.7137 0001172  91.8849 268.2277 15.08845402 79645,6917.864,95.437,540.54,538.918,0.0
50207.0,STARLINK-3262,PAYLOAD,2023-05-17 11:39:27,15.08845767,0.0001158,53.2159,170.4163,93.1334,266.9791,0.0001066,1.409e-05,0.0,0 STARLINK-3262,1 50207U 21125BD  23137.48573421  .00001409  00000-0  10660-3 0  9995,2 50207  53.2159 170.4163 0001158  93.1334 266.9791 15.08845767 79659,6917.863,95.437,540.529,538.927,0.0
50207.0,STARLINK-3262,PAYLOAD,2023-05-18 08:19:28,15.0883821,0.0001195,53.2157,166.5505,91.5297,268.5832,3.1962e-05,2.21e-06,0.0,0 STARLINK-3262,1 50207U 21125BD  23138.34685948  .00000221  00000-0  31962-4 0  9999,2 50207  53.2157 166.5505 0001195  91.5297 268.5832 15.08838210 79787,6917.886,95.438,540.578,538.924,0.0
50207.0,STARLINK-3262,PAYLOAD,2023-05-18 13:05:37,15.08840195,0.0001195,53.2159,165.6579,92.3807,267.7322,3.8503e-05,3.25e-06,0.0,0 STARLINK-3262,1 50207U 21125BD  23138.54557778  .00000325  00000-0  38503-4 0  9993,2 50207  53.2159 165.6579 0001195  92.3807 267.7322 15.08840195 79810,6917.88,95.438,540.571,538.918,0.0
50207.0,STARLINK-3262,PAYLOAD,2023-05-18 19:27:10,15.08841183,0.0001181,53.2159,164.4686,91.8864,268.2263,4.4759e-05,4.25e-06,0.0,0 STARLINK-3262,1 50207U 21125BD  23138.81053669  .00000425  00000-0  44759-4 0  9994,2 50207  53.2159 164.4686 0001181  91.8864 268.2263 15.08841183 79850,6917.877,95.437,540.559,538.925,0.0
50207.0,STARLINK-3262,PAYLOAD,2023-05-19 08:10:15,15.08844785,0.0001162,53.2159,162.0892,91.5014,268.6111,6.5157e-05,7.49e-06,0.0,0 STARLINK-3262,1 50207U 21125BD  23139.34045259  .00000749  00000-0  65157-4 0  9993,2 50207  53.2159 162.0892 0001162  91.5014 268.6111 15.08844785 79932,6917.866,95.437,540.535,538.927,0.0
50207.0,STARLINK-3262,PAYLOAD,2023-05-19 11:21:01,15.0884443,0.0001225,53.2164,161.4948,86.7957,273.3175,5.5607e-05,5.97e-06,0.0,0 STARLINK-3262,1 50207U 21125BD  23139.47293315  .00000597  00000-0  55607-4 0  9995,2 50207  53.2164 161.4948 0001225  86.7957 273.3175 15.08844430 79957,6917.867,95.437,540.579,538.884,0.0
50207.0,STARLINK-3262,PAYLOAD,2023-05-20 08:01:02,15.0883896,0.0001192,53.2161,157.6291,85.2379,274.8749,6.1193e-05,6.86e-06,0.0,0 STARLINK-3262,1 50207U 21125BD  23140.33405740  .00000686  00000-0  61193-4 0  9995,2 50207  53.2161 157.6291 0001192  85.2379 274.8749 15.08838960 80087,6917.884,95.438,540.573,538.924,0.0
50207.0,STARLINK-3262,PAYLOAD,2023-05-20 17:33:21,15.08842439,0.0001211,53.2162,155.8456,81.3088,278.8041,8.0544e-05,9.94e-06,0.0,0 STARLINK-3262,1 50207U 21125BD  23140.73149489  .00000994  00000-0  80544-4 0  9997,2 50207  53.2162 155.8456 0001211  81.3088 278.8041 15.08842439 80149,6917.873,95.437,540.576,538.9,0.0
50207.0,STARLINK-3262,PAYLOAD,2023-05-21 06:16:25,15.08845899,0.0001188,53.2164,153.4663,86.3649,273.7479,7.2584e-05,8.68e-06,0.0,0 STARLINK-3262,1 50207U 21125BD  23141.26141191  .00000868  00000-0  72584-4 0  9993,2 50207  53.2164 153.4663 0001188  86.3649 273.7479 15.08845899 80227,6917.862,95.437,540.549,538.906,0.0
50207.0,STARLINK-3262,PAYLOAD,2023-05-21 17:24:08,15.08840724,0.000119,53.2162,151.3847,79.2371,280.8755,4.1133e-05,3.67e-06,0.0,0 STARLINK-3262,1 50207U 21125BD  23141.72509573  .00000367  00000-0  41133-4 0  9996,2 50207  53.2162 151.3847 0001190  79.2371 280.8755 15.08840724 80297,6917.878,95.438,540.566,538.92,0.0
50207.0,STARLINK-3262,PAYLOAD,2023-05-22 09:18:00,15.08834718,0.0001141,53.216,148.4123,87.6209,272.4914,7.5825e-06,-1.67e-06,0.0,0 STARLINK-3262,1 50207U 21125BD  23142.38750253 -.00000167  00000-0  75825-5 0  9997,2 50207  53.2160 148.4123 0001141  87.6209 272.4914 15.08834718 80399,6917.897,95.438,540.551,538.972,0.0
